[Satellite]
VERSION=1.1
NAME=Oculus-ASR
NICKNAME=Oculus-ASR
TLE1=1 44348U 19036K   20156.17250177  .00007380  00000-0  10731-3 0  9999
TLE2=2 44348 028.5146 110.3559 0367999 166.1340 194.9670 15.02340928051803
STATUS=0
